[{"OBJECT_NAME":"STARLINK-31538","OBJECT_ID":"2024-073Q","EPOCH":"2026-03-09T01:46:13.185408","MEAN_MOTION":15.2758695,"ECCENTRICITY":0.00011192,"INCLINATION":43.0023,"RA_OF_ASC_NODE":321.3062,"ARG_OF_PERICENTER":234.5052,"MEAN_ANOMALY":125.5695,"EPHEMERIS_TYPE":0,"CLASSIFICATION_TYPE":"U","NORAD_CAT_ID":59525,"ELEMENT_SET_NO":999,"REV_AT_EPOCH":10608,"BSTAR":3.147981e-5,"MEAN_MOTION_DOT":6.04e-6,"MEAN_MOTION_DDOT":0},{"OBJECT_NAME":"OBJECT H","OBJECT_ID":"2024-205H","EPOCH":"2026-03-09T23:10:36.271776","MEAN_MOTION":15.29110994,"ECCENTRICITY":0.00105089,"INCLINATION":97.4168,"RA_OF_ASC_NODE":147.1265,"ARG_OF_PERICENTER":38.7838,"MEAN_ANOMALY":321.4154,"EPHEMERIS_TYPE":0,"CLASSIFICATION_TYPE":"U","NORAD_CAT_ID":61901,"ELEMENT_SET_NO":999,"REV_AT_EPOCH":7354,"BSTAR":0.00059497566,"MEAN_MOTION_DOT":0.00016783,"MEAN_MOTION_DDOT":0}]
